STARLINK-31597          
1 59464U 24068K   26068.30533245 -.00000273  00000+0 -40808-6 0  9994
2 59464  43.0054  36.7110 0001151 266.8565  93.2155 15.27578443108415
FLOCK 4G-10             
1 62670U 25009BP  26068.70827885  .00013952  00000+0  52624-3 0  9995
2 62670  97.3967 150.5883 0003469 341.4844  18.6269 15.27155944121340
